NORAD_CAT_ID,OBJECT_NAME,OBJECT_TYPE,EPOCH,MEAN_MOTION,ECCENTRICITY,INCLINATION,RA_OF_ASC_NODE,ARG_OF_PERICENTER,MEAN_ANOMALY,BSTAR,MEAN_MOTION_DOT,MEAN_MOTION_DDOT,TLE_LINE0,TLE_LINE1,TLE_LINE2,SEMIMAJOR_AXIS,PERIOD,APOGEE,PERIGEE,DECAYED
52627.0,STARLINK-3992,PAYLOAD,2022-06-27 14:00:01,15.7315912,0.0002886,53.2139,223.0986,18.7724,24.3063,0.00041617,0.00058097,0.0,0 STARLINK-3992,1 52627U 22052AF  22178.58334491  .00058097  00000-0  41617-3 0  9991,2 52627  53.2139 223.0986 0002886  18.7724  24.3063 15.73159120  1306,6728.012,91.536,351.8180000000001,347.935,0.0
52627.0,STARLINK-3992,PAYLOAD,2022-06-27 20:00:01,15.73199365,0.0002682,53.2138,221.8599,18.9071,0.9194,0.0001543,0.0002109,0.0,0 STARLINK-3992,1 52627U 22052AF  22178.83335648  .00021090  00000-0  15430-3 0  9991,2 52627  53.2138 221.8599 0002682  18.9071   0.9194 15.73199365  7308,6727.897,91.533,351.566,347.958,0.0
52627.0,STARLINK-3992,PAYLOAD,2022-06-27 22:00:00,15.73184988,0.0002603,53.2137,221.4471,18.4498,113.5491,0.000461,0.00064541,0.0,0 STARLINK-3992,1 52627U 22052AF  22178.91667824  .00064541  00000-0  46100-3 0  9990,2 52627  53.2137 221.4471 0002603  18.4498 113.5491 15.73184988  1303,6727.938,91.534,351.55400000000014,348.052,0.0
52627.0,STARLINK-3992,PAYLOAD,2022-06-28 12:00:00,15.7314253,0.0002833,53.2139,218.5625,14.7377,182.8849,0.0004566,0.00063799,0.0,0 STARLINK-3992,1 52627U 22052AF  22179.50001157  .00063799  00000-0  45660-3 0  9991,2 52627  53.2139 218.5625 0002833  14.7377 182.8849 15.73142530  7414,6728.059,91.537,351.83,348.01800000000014,0.0
52627.0,STARLINK-3992,PAYLOAD,2022-06-28 14:00:01,15.73147455,0.0002855,53.2137,218.1502,13.7307,296.1113,0.00051038,0.00071467,0.0,0 STARLINK-3992,1 52627U 22052AF  22179.58334491  .00071467  00000-0  51038-3 0  9996,2 52627  53.2137 218.1502 0002855  13.7307 296.1113 15.73147455  1304,6728.045,91.536,351.831,347.98900000000015,0.0
52627.0,STARLINK-3992,PAYLOAD,2022-06-28 22:00:00,15.73171939,0.0002634,53.214,216.4985,16.0838,22.6662,0.00046168,0.00064602,0.0,0 STARLINK-3992,1 52627U 22052AF  22179.91667824  .00064602  00000-0  46168-3 0  9993,2 52627  53.2140 216.4985 0002634  16.0838  22.6662 15.73171939  1309,6727.975,91.535,351.612,348.0680000000001,0.0
52627.0,STARLINK-3992,PAYLOAD,2022-06-29 14:00:01,15.73229307,0.0002934,53.2134,213.2013,15.6783,200.9345,4.2641e-05,5.374e-05,0.0,0 STARLINK-3992,1 52627U 22052AF  22180.58334491  .00005374  00000-0  42641-4 0  9993,2 52627  53.2134 213.2013 0002934  15.6783 200.9345 15.73229307  1308,6727.812,91.531,351.651,347.70300000000015,0.0
52627.0,STARLINK-3992,PAYLOAD,2022-06-29 22:00:00,15.73178834,0.0002662,53.2134,211.5496,15.503,290.092,0.0002485,0.00034369,0.0,0 STARLINK-3992,1 52627U 22052AF  22180.91667824  .00034369  00000-0  24850-3 0  9996,2 52627  53.2134 211.5496 0002662  15.5030 290.0920 15.73178834  1303,6727.956,91.534,351.612,348.03,0.0
52627.0,STARLINK-3992,PAYLOAD,2022-06-30 04:00:00,15.73215038,0.0002644,53.2137,210.313,15.8535,266.4251,6.3955e-05,8.369e-05,0.0,0 STARLINK-3992,1 52627U 22052AF  22181.16667824  .00008369  00000-0  63955-4 0  9995,2 52627  53.2137 210.3130 0002644  15.8535 266.4251 15.73215038  7679,6727.852,91.532,351.496,347.93800000000016,0.0
52627.0,STARLINK-3992,PAYLOAD,2022-06-30 14:00:01,15.73233395,0.0002924,53.2134,208.2525,12.9706,110.4864,-0.00020445,-0.00029264,0.0,0 STARLINK-3992,1 52627U 22052AF  22181.58334491 -.00029264  00000-0 -20445-3 0  9997,2 52627  53.2134 208.2525 0002924  12.9706 110.4864 15.73233395  1307,6727.8,91.531,351.63199999999995,347.6980000000001,0.0
52627.0,STARLINK-3992,PAYLOAD,2022-06-30 22:00:00,15.73158571,0.0002671,53.2141,206.6005,11.9246,200.5121,0.00045794,0.00064032,0.0,0 STARLINK-3992,1 52627U 22052AF  22181.91667824  .00064032  00000-0  45794-3 0  9997,2 52627  53.2141 206.6005 0002671  11.9246 200.5121 15.73158571  1306,6728.013000000001,91.536,351.675,348.081,0.0
52627.0,STARLINK-3992,PAYLOAD,2022-07-01 04:00:00,15.73228384,0.0002628999999999,53.215,205.3625,14.255,174.84799999999996,-0.00029781,-0.00042267,0.0,0 STARLINK-3992,1 52627U 22052AF  22182.16667824 -.00042267  00000-0 -29781-3 0  9991,2 52627  53.2150 205.3625 0002629  14.2550 174.8480 15.73228384  7832,6727.814,91.532,351.4480000000001,347.911,0.0
52627.0,STARLINK-3992,PAYLOAD,2022-07-01 14:00:01,15.73138119,0.0002704,53.2161,203.3016,13.5739,16.7127,-0.0048107,-0.0062637,0.0,0 STARLINK-3992,1 52627U 22052AF  22182.58334491 -.00626370  00000-0 -48107-2 0  9993,2 52627  53.2161 203.3016 0002704  13.5739  16.7127 15.73138119  1305,6728.071999999999,91.537,351.756,348.117,0.0
52627.0,STARLINK-3992,PAYLOAD,2022-07-01 22:00:00,15.72710951,0.00029,53.2173,201.6509,10.8456,108.0419,-0.0084982999999999,-0.01051946,0.0,0 STARLINK-3992,1 52627U 22052AF  22182.91667824 -.01051946  00000-0 -84983-2 0  9993,2 52627  53.2173 201.6509 0002900  10.8456 108.0419 15.72710951  1308,6729.29,91.562,353.106,349.20300000000015,0.0
52627.0,STARLINK-3992,PAYLOAD,2022-07-02 12:00:00,15.71379655,0.000237,53.2173,198.7742,6.3418,175.7297,-0.0089553,-0.01047386,0.0,0 STARLINK-3992,1 52627U 22052AF  22183.50001157 -.01047386  00000-0 -89553-2 0  9991,2 52627  53.2173 198.7742 0002370   6.3418 175.7297 15.71379655  8046,6733.09,91.639,356.551,353.3590000000001,0.0
52627.0,STARLINK-3992,PAYLOAD,2022-07-02 14:00:01,15.7119328,0.0002313,53.2171,198.3629,9.413,284.3127,-0.0090731,-0.01052232,0.0,0 STARLINK-3992,1 52627U 22052AF  22183.58334491 -.01052232  00000-0 -90731-2 0  9995,2 52627  53.2171 198.3629 0002313   9.4130 284.3127 15.71193280  1305,6733.623000000001,91.65,357.045,353.93,0.0
52627.0,STARLINK-3992,PAYLOAD,2022-07-02 22:00:00,15.70432974,0.0002967,53.2173,196.7187,353.9544,25.8242,-0.0093662,-0.01052176,0.0,0 STARLINK-3992,1 52627U 22052AF  22183.91667824 -.01052176  00000-0 -93662-2 0  9994,2 52627  53.2173 196.7187 0002967 353.9544  25.8242 15.70432974  1300,6735.795999999999,91.694,359.659,355.662,0.0
52627.0,STARLINK-3992,PAYLOAD,2022-07-03 04:00:00,15.69865203,0.0003151,53.2176,195.4893,5.3688,348.3477,-0.0096167,-0.01054649,0.0,0 STARLINK-3992,1 52627U 22052AF  22184.16667824 -.01054649  00000-0 -96167-2 0  9992,2 52627  53.2176 195.4893 0003151   5.3688 348.3477 15.69865203  8141,6737.42,91.728,361.408,357.162,0.0
52627.0,STARLINK-3992,PAYLOAD,2022-07-03 14:00:01,15.68919785,5.629999999999999e-05,53.2172,193.4418,291.0194,258.1209,-0.010082,-0.01060998,0.0,0 STARLINK-3992,1 52627U 22052AF  22184.58334491 -.01060998  00000-0 -10082-1 0  9994,2 52627  53.2172 193.4418 0000563 291.0194 258.1209 15.68919785  1304,6740.126,91.783,362.37,361.612,0.0
52627.0,STARLINK-3992,PAYLOAD,2022-07-03 20:00:01,15.68345736,9.65e-05,53.2175,192.2126,46.0995,115.6132,-0.010229,-0.01052268,0.0,0 STARLINK-3992,1 52627U 22052AF  22184.83334491 -.01052268  00000-0 -10229-1 0  9996,2 52627  53.2175 192.2126 0000965  46.0995 115.6132 15.68345736  8255,6741.771,91.816,364.286,362.985,0.0
52627.0,STARLINK-3992,PAYLOAD,2022-07-03 22:00:00,15.68152377,0.0001,53.2173,191.8032,60.1428,212.3136,-0.010256,-0.01047224,0.0,0 STARLINK-3992,1 52627U 22052AF  22184.91667824 -.01047224  00000-0 -10256-1 0  9990,2 52627  53.2173 191.8032 0001000  60.1428 212.3136 15.68152377  1308,6742.325,91.828,364.864,363.516,0.0
52627.0,STARLINK-3992,PAYLOAD,2022-07-04 14:00:01,15.66636751,0.0001064,53.2171,188.5374,73.3812,2.9608,-0.010959,-0.01051121,0.0,0 STARLINK-3992,1 52627U 22052AF  22185.58334491 -.01051121  00000-0 -10959-1 0  9996,2 52627  53.2171 188.5374 0001064  73.3812   2.9608 15.66636751  1309,6746.6730000000025,91.917,369.255,367.82,0.0
52627.0,STARLINK-3992,PAYLOAD,2022-07-04 22:00:00,15.65876893,0.0001219,53.2172,186.9045,71.5436,85.3748,-0.011307,-0.0105154,0.0,0 STARLINK-3992,1 52627U 22052AF  22185.91667824 -.01051540  00000-0 -11307-1 0  9995,2 52627  53.2172 186.9045 0001219  71.5436  85.3748 15.65876893  1303,6748.855,91.961,371.543,369.897,0.0
52627.0,STARLINK-3992,PAYLOAD,2022-07-05 04:00:00,15.65305693,0.0001317,53.2174,185.6838,57.2535,69.4969,-0.011528,-0.01048066,0.0,0 STARLINK-3992,1 52627U 22052AF  22186.16667824 -.01048066  00000-0 -11528-1 0  9997,2 52627  53.2174 185.6838 0001317  57.2535  69.4969 15.65305693  8468,6750.496999999999,91.995,373.251,371.473,0.0
52627.0,STARLINK-3992,PAYLOAD,2022-07-05 14:00:01,15.64358839,0.0001037,53.2173,183.6495,75.6531,239.6759,-0.012019,-0.01051461,0.0,0 STARLINK-3992,1 52627U 22052AF  22186.58334491 -.01051461  00000-0 -12019-1 0  9993,2 52627  53.2173 183.6495 0001037  75.6531 239.6759 15.64358839  1306,6753.22,92.05,375.786,374.385,0.0
52627.0,STARLINK-3992,PAYLOAD,2022-07-05 22:00:00,15.63596331,0.0001082,53.2175,182.0223,65.5582,327.6101,-0.012339,-0.01047603,0.0,0 STARLINK-3992,1 52627U 22052AF  22186.91667824 -.01047603  00000-0 -12339-1 0  9997,2 52627  53.2175 182.0223 0001082  65.5582 327.6101 15.63596331  1303,6755.416,92.095,378.012,376.55,0.0
52627.0,STARLINK-3992,PAYLOAD,2022-07-06 12:00:02,15.62268601,0.0001163,53.2171,179.1841,60.4041,16.846,-0.013004,-0.01063977,0.0,0 STARLINK-3992,1 52627U 22052AF  22187.50002315 -.01063977  00000-0 -13004-1 0  9993,2 52627  53.2171 179.1841 0001163  60.4041  16.8460 15.62268601  8673,6759.243,92.174,381.894,380.322,0.0
52627.0,STARLINK-3992,PAYLOAD,2022-07-06 14:00:01,15.62079896,0.0001278,53.2172,178.7784,69.0705,117.032,-0.01314,-0.01066932,0.0,0 STARLINK-3992,1 52627U 22052AF  22187.58334491 -.01066932  00000-0 -13140-1 0  9999,2 52627  53.2172 178.7784 0001278  69.0705 117.0320 15.62079896  1302,6759.7869999999975,92.185,382.516,380.788,0.0
52627.0,STARLINK-3992,PAYLOAD,2022-07-06 22:00:00,15.61318098,0.0001183,53.2173,177.1568,80.422,180.7812,-0.013482,-0.01062965,0.0,0 STARLINK-3992,1 52627U 22052AF  22187.91667824 -.01062965  00000-0 -13482-1 0  9996,2 52627  53.2173 177.1568 0001183  80.4220 180.7812 15.61318098  1302,6761.986,92.23,384.651,383.051,0.0
